Total gap duration: 2 days, 23:41:26.107783
Total gap duration: 2 days, 22:16:08.517636
STARLINK-2364
1 47904U 21021AW  24101.52400970  .00007580  00000+0  52687-3 0  9995
2 47904  53.0530 155.8064 0001087  93.2735 266.8378 15.06423830170635
Total gap duration: 2 days, 23:30:04.059018
STARLINK-1156
1 45054U 20006L   24101.23235880  .00022804  00000+0  15427-2 0  9991
2 45054  53.0543 182.1136 0001119  60.0829 300.0271 15.06452008231526
Total gap duration: 2 days, 23:13:19.116086
STARLINK-30506
1 58072U 23158X   24101.39398756  .00000670  00000+0  64679-4 0  9997
2 58072  43.0037 224.3173 0001917 286.1367  73.9264 15.02533643 28333
Total gap duration: 2 days, 22:28:05.642977
STARLINK-4080
1 52835U 22062F   24101.25591570  .00000550  00000+0  52668-4 0  9997
2 52835  53.2162 289.5133 0001248  84.9741 275.1394 15.08837121100348
Total gap duration: 2 days, 23:32:49.753472
STARLINK-1038
1 44743U 19074AG  24101.19735093  .00001953  00000+0  14998-3 0  9999
2 44743  53.0541 122.2683 0001323  80.9381 279.1757 15.06396757243088
Total gap duration: 2 days, 22:58:33.971664
STARLINK-1184
1 45098U 20006BG  24101.14759781  .00002449  00000+0  18328-3 0  9997
2 45098  53.0530 142.4906 0001263  90.5051 269.6083 15.06393529230284
Total gap duration: 2 days, 23:05:59.857758
STARLINK-30992
1 58524U 23191S   24100.61978331  .00002394  00000+0  19225-3 0  9994
2 58524  42.9990 304.4899 0001347 266.2489  93.8199 15.02537345 20284
Total gap duration: 2 days, 22:06:54.734523
STARLINK-3046
1 49169U 21082AR  24101.39191827  .00000635  00000+0  61035-4 0  9992
2 49169  70.0024 235.1180 0003123 269.5339  90.5462 14.98336858143087
Total gap duration: 2 days, 23:09:57.528889
STARLINK-30430
1 57849U 23141K   24101.58335648  .02529707  00000+0  97964-1 0  9991
2 57849  53.1130 286.8147 0001440  91.0253 324.1988 15.21947798 33445
Total gap duration: 2 days, 23:18:38.588830
STARLINK-5571
1 55380U 23013BB  24100.75247191  .00000544  00000+0  55325-4 0  9999
2 55380  43.0023 124.9315 0001170 276.2014  83.8695 15.02535470 66723
Total gap duration: 2 days, 23:29:02.249816
STARLINK-1193
1 45100U 20006BJ  24101.40928063  .00000759  00000+0  69815-4 0  9991
2 45100  53.0544 141.3189 0001313  91.2771 268.8369 15.06400579232124
Total gap duration: 2 days, 23:06:54.044266
STARLINK-30346
1 57704U 23129G   24101.01984707  .00000237  00000+0  32654-4 0  9999
2 57704  43.0054 316.9021 0001479 267.3150  92.7523 15.02537067 35415
Total gap duration: 2 days, 22:27:30.629168
STARLINK-3986
1 52623U 22052AB  24100.43389804  .00001636  00000+0  12088-3 0  9992
2 52623  53.2178 168.2035 0001694  87.5207 272.5979 15.08837477105423
Total gap duration: 2 days, 23:22:34.217924
STARLINK-2347
1 47795U 21018J   24100.81171381  .00001509  00000+0  12021-3 0  9994
2 47795  53.0545 129.0031 0001336  84.8826 275.2315 15.06391338171598
Total gap duration: 2 days, 23:20:37.489410
STARLINK-2666
1 48666U 21044AE  24101.43467050  .00007072  00000+0  49292-3 0  9992
2 48666  53.0559   6.6769 0000828  72.1967 287.9112 15.06418516159498
Total gap duration: 2 days, 23:10:11.953030
STARLINK-3881
1 52472U 22049X   24100.87273444  .00000553  00000+0  52825-4 0  9991
2 52472  53.2184 316.2327 0001419  82.6294 277.4860 15.08840430106751
Total gap duration: 2 days, 23:20:33.914573
STARLINK-4622
1 53648U 22105A   24101.39474289  .00002926  00000+0  23239-3 0  9990
2 53648  97.6549 343.1915 0003359  78.7067 281.4534 15.01248582 88761
Total gap duration: 2 days, 23:33:58.237189
STARLINK-2360
1 47900U 21021AS  24101.50251861 -.00000059  00000+0  43769-5 0  9990
2 47900  53.0531 147.5394 0001512  69.3391 290.7788 15.69713007170730
Total gap duration: 2 days, 23:24:03.483302
STARLINK-30120
1 56824U 23079B   24100.94365239  .00000150  00000+0  26171-4 0  9990
2 56824  43.0043 304.2693 0001112 265.3678  94.7037 15.02529418 48098
Total gap duration: 2 days, 22:37:08.075037
STARLINK-3911
1 52565U 22051AJ  24101.14321600  .00001871  00000+0  13560-3 0  9992
2 52565  53.2204  15.0150 0001649  78.7089 281.4088 15.08838951106198
Total gap duration: 2 days, 23:10:47.543101
STARLINK-31547
1 59364U 24060S   24101.58335648 -.01098595  00000+0 -67399-2 0  9993
2 59364  43.0003 283.5299 0001570 263.9918  28.4469 15.78803874  2813
Total gap duration: 2 days, 23:21:36.535884
STARLINK-1133
1 45064U 20006W   24101.52907332  .00009653  00000+0  66540-3 0  9992
2 45064  53.0529 160.7816 0001246  71.0291 289.0833 15.06436739231864
Total gap duration: 2 days, 23:24:17.047100
STARLINK-31530
1 59322U 24057C   24101.50001157 -.00157855  00000+0 -10946-2 0  9990
2 59322  43.0007 221.2580 0001348 257.4643 300.2737 15.73949457  3643
Total gap duration: 2 days, 23:14:50.088962
STARLINK-5467
1 55660U 23021AJ  24101.19499477 -.00000709  00000+0 -50491-4 0  9998
2 55660  69.9987 125.7418 0003148 271.6512  88.4287 14.99139522 64350
Total gap duration: 2 days, 23:10:07.602380
STARLINK-2515
1 48323U 21036AZ  24101.40605374  .00009125  00000+0  63062-3 0  9995
2 48323  53.0541 356.3323 0001177  74.9817 285.1302 15.06405478163378
Total gap duration: 2 days, 22:51:05.475404
STARLINK-30560
1 58038U 23156L   24101.20422121  .00007348  00000+0  27774-3 0  9994
2 58038  53.1107  89.3301 0001781  96.3178 263.8024 15.28013221 29021
Total gap duration: 2 days, 23:18:15.647613
STARLINK-5568
1 55372U 23013AT  24101.49319565  .00000612  00000+0  60355-4 0  9992
2 55372  43.0031 147.0311 0001099 275.9610  84.1107 15.02543394 66965
Total gap duration: 2 days, 22:42:05.596903
STARLINK-4459
1 53670U 22105Y   24101.42620523  .00001271  00000+0  10354-3 0  9999
2 53670  97.6565 343.2233 0001816  88.6436 271.4997 15.01262000 88756
Total gap duration: 2 days, 23:20:35.522976
STARLINK-4791
1 53936U 22119BC  24101.54982727 -.00000119  00000+0  10613-4 0  9999
2 53936  53.2172 192.9305 0001389 101.7580 258.3568 15.08830793 86229
Total gap duration: 2 days, 23:00:10.009727
STARLINK-4062
1 53261U 22086V   24101.23382585 -.00001183  00000+0 -56218-4 0  9999
2 53261  53.2163  89.6092 0001316  79.6473 280.4667 15.08854481 95449
Total gap duration: 2 days, 23:09:32.946684
STARLINK-31562
1 59340U 24057W   24101.25001157 -.01696102  00000+0 -13342-1 0  9998
2 59340  43.0005 222.3535 0001679 272.3994 112.4684 15.73533458  3661
Total gap duration: 2 days, 23:10:41.822558
STARLINK-5338
1 55286U 23010T   24101.08652331 -.00000374  00000+0 -23578-4 0  9992
2 55286  70.0000 345.9482 0002670 266.5244  93.5610 14.98332354 68318
Total gap duration: 2 days, 23:13:50.239558
STARLINK-30365
1 57734U 23131C   24100.81042766  .00000204  00000+0  30187-4 0  9995
2 57734  43.0045   9.3467 0000904 270.1365  89.9373 15.02535453 34795
Total gap duration: 2 days, 22:19:52.125322
STARLINK-3277
1 50182U 21125AC  24100.81476970  .00001901  00000+0  13749-3 0  9993
2 50182  53.2163 146.3378 0001432  87.9559 272.1597 15.08835006131131
Total gap duration: 2 days, 23:07:44.714439
STARLINK-5463
1 55673U 23021AX  24101.22582673  .00000226  00000+0  26715-4 0  9991
2 55673  69.9984 125.4426 0003106 269.5976  90.4827 14.98333013 64365
Total gap duration: 2 days, 23:09:02.001652
STARLINK-30275
1 57667U 23124E   24100.70246170  .00018388  00000+0  67457-3 0  9996
2 57667  53.0990 216.0811 0001093  58.1210 301.9895 15.28032756 36517
Total gap duration: 2 days, 23:19:12.322219
STARLINK-1136
1 45089U 20006AX  24101.53830203  .00001475  00000+0  11787-3 0  9999
2 45089  53.0541 140.8264 0001112  85.5514 274.5602 15.06402551231791
Total gap duration: 2 days, 23:08:29.927994
STARLINK-30351
1 57738U 23131G   24100.82041631  .00002053  00000+0  16695-3 0  9991
2 57738  43.0048   9.4578 0001314 265.7618  94.3074 15.02542350 34795
Total gap duration: 2 days, 22:42:08.172626
STARLINK-4636
1 53731U 22107AH  24101.13632822  .00001218  00000+0  94590-4 0  9998
2 53731  53.2183 150.1993 0001646  91.8039 268.3141 15.08845365 88497
Total gap duration: 2 days, 22:57:32.706577
STARLINK-5295
1 55306U 23010AP  24101.34499134 -.00003447  00000+0 -28118-3 0  9992
2 55306  70.0004 325.3672 0002810 273.4968  86.5870 14.98340525 68841
Total gap duration: 2 days, 23:13:43.602217
STARLINK-4586
1 53636U 22104BA  24101.42609625 -.00000065  00000+0  14034-4 0  9991
2 53636  53.2186 118.5726 0001621  95.4613 264.6564 15.08835781 89790
Total gap duration: 2 days, 22:57:34.886726
STARLINK-4302
1 53481U 22099S   24101.58665921  .00000917  00000+0  75960-4 0  9990
2 53481  97.6548 223.3928 0000391 139.4650 220.6603 15.01267518 91489
Total gap duration: 2 days, 23:17:35.718035
STARLINK-5858
1 57264U 23094AY  24100.68073057  .00000473  00000+0  50094-4 0  9990
2 57264  43.0065 215.3030 0001174 270.3480  89.7227 15.02532445 42120
Total gap duration: 2 days, 22:52:04.576632
STARLINK-5453
1 54773U 22175R   24100.80969844  .00000682  00000+0  60949-4 0  9995
2 54773  53.2197 301.3928 0001420  91.8965 268.2190 15.08841476 74414
Total gap duration: 2 days, 23:22:02.604178
STARLINK-6348
1 57360U 23099AJ  24101.19681737  .00001642  00000+0  13658-3 0  9992
2 57360  43.0057  71.4828 0001134 265.0605  95.0108 15.02540844 41938
Total gap duration: 2 days, 23:00:56.302374
STARLINK-4162
1 53288U 22086AY  24101.22739024  .00001343  00000+0  10244-3 0  9995
2 53288  53.2178  79.6375 0001278  91.6424 268.4715 15.08841621 95581
Total gap duration: 2 days, 22:59:49.394066
STARLINK-5309
1 55310U 23010AT  24101.33661387  .00003241  00000+0  27915-3 0  9991
2 55310  69.9988 325.3368 0002885 270.5723  89.5106 14.98351642 68842
Total gap duration: 2 days, 23:21:13.971411
STARLINK-31279
1 59086U 24041N   24101.55163862 -.00000313  00000+0 -21445-5 0  9992
2 59086  42.9953 287.1147 0001190 272.1570  87.9145 15.25901689  7633
Total gap duration: 2 days, 23:19:15.191285
STARLINK-5370
1 56145U 23046BF  24101.50122947  .00069446  00000+0  40374-3 0  9993
2 56145  42.9995 277.5072 0002285 275.1162  84.9448 15.77572712 58444
Total gap duration: 2 days, 23:07:52.106074
STARLINK-31553
1 59363U 24060R   24101.58335648 -.01090652  00000+0 -66862-2 0  9992
2 59363  43.0005 283.5352 0001443 264.1780  26.1059 15.78803479  2814
